{
  "type": "FeatureCollection",
  "features": [
    {
      "type": "Feature",
      "properties": {
        "norad_id": 57400,
        "name": "TIANMU-1 08",
        "group": "weather",
        "lat": -73.74393280155492,
        "lon": -156.31608459077037,
        "alt_km": 492.4542596927258,
        "timestamp": "2025-12-26T08:37:54.213635+00:00",
        "meta_object_name": "TIANMU-1 08",
        "meta_object_id": "2023-101B",
        "meta_epoch": "2025-12-26T04:22:28.617888",
        "meta_mean_motion": 15.28243151,
        "meta_eccentricity": 0.0006871,
        "meta_inclination": 97.2845,
        "meta_ra_of_asc_node": 49.531,
        "meta_arg_of_pericenter": 45.5403,
        "meta_mean_anomaly": 314.6398,
        "meta_ephemeris_type": 0,
        "meta_classification_type": "U",
        "meta_norad_cat_id": 57400,
        "meta_element_set_no": 999,
        "meta_rev_at_epoch": 13520,
        "meta_bstar": 0.00026467,
        "meta_mean_motion_dot": 7.215e-05,
        "meta_mean_motion_ddot": 0,
        "tle_line1": "1 57400U 23101B   25360.18227567  .00007215  00000+0  26467-3 0  9999",
        "tle_line2": "2 57400  97.2845  49.5310 0006871  45.5403 314.6398 15.28243151135205"
      },
      "geometry": {
        "type": "Point",
        "coordinates": [
          -156.31608459077037,
          -73.74393280155492
        ]
      }
    },
    {
      "type": "Feature",
      "properties": {
        "norad_id": 57401,
        "name": "TIANMU-1 09",
        "group": "weather",
        "lat": -30.22890151549501,
        "lon": 53.482777939063894,
        "alt_km": 486.01939512507124,
        "timestamp": "2025-12-26T08:37:54.213648+00:00",
        "meta_object_name": "TIANMU-1 09",
        "meta_object_id": "2023-101C",
        "meta_epoch": "2025-12-26T04:03:02.222208",
        "meta_mean_motion": 15.2827894,
        "meta_eccentricity": 0.0006145,
        "meta_inclination": 97.2802,
        "meta_ra_of_asc_node": 49.0242,
        "meta_arg_of_pericenter": 46.7611,
        "meta_mean_anomaly": 313.4141,
        "meta_ephemeris_type": 0,
        "meta_classification_type": "U",
        "meta_norad_cat_id": 57401,
        "meta_element_set_no": 999,
        "meta_rev_at_epoch": 13520,
        "meta_bstar": 0.00028354,
        "meta_mean_motion_dot": 7.743e-05,
        "meta_mean_motion_ddot": 0,
        "tle_line1": "1 57401U 23101C   25360.16877572  .00007743  00000+0  28354-3 0  9998",
        "tle_line2": "2 57401  97.2802  49.0242 0006145  46.7611 313.4141 15.28278940135203"
      },
      "geometry": {
        "type": "Point",
        "coordinates": [
          53.482777939063894,
          -30.22890151549501
        ]
      }
    },
    {
      "type": "Feature",
      "properties": {
        "norad_id": 57402,
        "name": "TIANMU-1 10",
        "group": "weather",
        "lat": 38.25146484048432,
        "lon": -124.13402595363864,
        "alt_km": 478.960612927438,
        "timestamp": "2025-12-26T08:37:54.213658+00:00",
        "meta_object_name": "TIANMU-1 10",
        "meta_object_id": "2023-101D",
        "meta_epoch": "2025-12-26T04:52:24.125664",
        "meta_mean_motion": 15.28271883,
        "meta_eccentricity": 0.0007848,
        "meta_inclination": 97.2882,
        "meta_ra_of_asc_node": 49.9218,
        "meta_arg_of_pericenter": 43.8521,
        "meta_mean_anomaly": 316.3341,
        "meta_ephemeris_type": 0,
        "meta_classification_type": "U",
        "meta_norad_cat_id": 57402,
        "meta_element_set_no": 999,
        "meta_rev_at_epoch": 13520,
        "meta_bstar": 0.00027711,
        "meta_mean_motion_dot": 7.567e-05,
        "meta_mean_motion_ddot": 0,
        "tle_line1": "1 57402U 23101D   25360.20305701  .00007567  00000+0  27711-3 0  9994",
        "tle_line2": "2 57402  97.2882  49.9218 0007848  43.8521 316.3341 15.28271883135206"
      },
      "geometry": {
        "type": "Point",
        "coordinates": [
          -124.13402595363864,
          38.25146484048432
        ]
      }
    },
    {
      "type": "Feature",
      "properties": {
        "norad_id": 57490,
        "name": "FENGYUN 3F",
        "group": "weather",
        "lat": 38.458136560559,
        "lon": -104.57721210287792,
        "alt_km": 822.2196734391518,
        "timestamp": "2025-12-26T08:37:54.213669+00:00",
        "meta_object_name": "FENGYUN 3F",
        "meta_object_id": "2023-111A",
        "meta_epoch": "2025-12-26T04:35:16.342368",
        "meta_mean_motion": 14.19897037,
        "meta_eccentricity": 8.5e-05,
        "meta_inclination": 98.7065,
        "meta_ra_of_asc_node": 68.2665,
        "meta_arg_of_pericenter": 118.1147,
        "meta_mean_anomaly": 242.0116,
        "meta_ephemeris_type": 0,
        "meta_classification_type": "U",
        "meta_norad_cat_id": 57490,
        "meta_element_set_no": 999,
        "meta_rev_at_epoch": 12431,
        "meta_bstar": 5.4582e-05,
        "meta_mean_motion_dot": 7.2e-07,
        "meta_mean_motion_ddot": 0,
        "tle_line1": "1 57490U 23111A   25360.19116137  .00000072  00000+0  54582-4 0  9994",
        "tle_line2": "2 57490  98.7065  68.2665 0000850 118.1147 242.0116 14.19897037124317"
      },
      "geometry": {
        "type": "Point",
        "coordinates": [
          -104.57721210287792,
          38.458136560559
        ]
      }
    },
    {
      "type": "Feature",
      "properties": {
        "norad_id": 58584,
        "name": "ARKTIKA-M 2",
        "group": "weather",
        "lat": 45.79786388707792,
        "lon": -155.31531471657865,
        "alt_km": 25896.63905780646,
        "timestamp": "2025-12-26T08:37:54.213684+00:00",
        "meta_object_name": "ARKTIKA-M 2",
        "meta_object_id": "2023-198A",
        "meta_epoch": "2025-12-25T18:56:09.299328",
        "meta_mean_motion": 2.00602256,
        "meta_eccentricity": 0.686608,
        "meta_inclination": 63.2255,
        "meta_ra_of_asc_node": 173.4714,
        "meta_arg_of_pericenter": 268.0516,
        "meta_mean_anomaly": 18.8422,
        "meta_ephemeris_type": 0,
        "meta_classification_type": "U",
        "meta_norad_cat_id": 58584,
        "meta_element_set_no": 999,
        "meta_rev_at_epoch": 1484,
        "meta_bstar": 0,
        "meta_mean_motion_dot": 2.31e-06,
        "meta_mean_motion_ddot": 0,
        "tle_line1": "1 58584U 23198A   25359.78899652  .00000231  00000+0  00000+0 0  9995",
        "tle_line2": "2 58584  63.2255 173.4714 6866080 268.0516  18.8422  2.00602256 14849"
      },
      "geometry": {
        "type": "Point",
        "coordinates": [
          -155.31531471657865,
          45.79786388707792
        ]
      }
    },
    {
      "type": "Feature",
      "properties": {
        "norad_id": 58645,
        "name": "TIANMU-1 11",
        "group": "weather",
        "lat": 30.330680405331492,
        "lon": -155.91918964848642,
        "alt_km": 491.1477439501341,
        "timestamp": "2025-12-26T08:37:54.213696+00:00",
        "meta_object_name": "TIANMU-1 11",
        "meta_object_id": "2023-205A",
        "meta_epoch": "2025-12-26T04:49:41.968416",
        "meta_mean_motion": 15.24760332,
        "meta_eccentricity": 0.0007584,
        "meta_inclination": 97.3599,
        "meta_ra_of_asc_node": 19.588,
        "meta_arg_of_pericenter": 252.5766,
        "meta_mean_anomaly": 107.4643,
        "meta_ephemeris_type": 0,
        "meta_classification_type": "U",
        "meta_norad_cat_id": 58645,
        "meta_element_set_no": 999,
        "meta_rev_at_epoch": 11114,
        "meta_bstar": 0.00026751,
        "meta_mean_motion_dot": 6.562e-05,
        "meta_mean_motion_ddot": 0,
        "tle_line1": "1 58645U 23205A   25360.20118019  .00006562  00000+0  26751-3 0  9990",
        "tle_line2": "2 58645  97.3599  19.5880 0007584 252.5766 107.4643 15.24760332111146"
      },
      "geometry": {
        "type": "Point",
        "coordinates": [
          -155.91918964848642,
          30.330680405331492
        ]
      }
    },
    {
      "type": "Feature",
      "properties": {
        "norad_id": 58646,
        "name": "TIANMU-1 12",
        "group": "weather",
        "lat": -4.080394705267489,
        "lon": 20.07283708724948,
        "alt_km": 497.9158138083276,
        "timestamp": "2025-12-26T08:37:54.213706+00:00",
        "meta_object_name": "TIANMU-1 12",
        "meta_object_id": "2023-205B",
        "meta_epoch": "2025-12-26T05:29:58.011360",
        "meta_mean_motion": 15.2464776,
        "meta_eccentricity": 0.0006066,
        "meta_inclination": 97.3587,
        "meta_ra_of_asc_node": 19.4164,
        "meta_arg_of_pericenter": 230.2158,
        "meta_mean_anomaly": 129.8546,
        "meta_ephemeris_type": 0,
        "meta_classification_type": "U",
        "meta_norad_cat_id": 58646,
        "meta_element_set_no": 999,
        "meta_rev_at_epoch": 11113,
        "meta_bstar": 0.00025795,
        "meta_mean_motion_dot": 6.302e-05,
        "meta_mean_motion_ddot": 0,
        "tle_line1": "1 58646U 23205B   25360.22914365  .00006302  00000+0  25795-3 0  9990",
        "tle_line2": "2 58646  97.3587  19.4164 0006066 230.2158 129.8546 15.24647760111138"
      },
      "geometry": {
        "type": "Point",
        "coordinates": [
          20.07283708724948,
          -4.080394705267489
        ]
      }
    }
  ]
}